{{Infobox Planet  
| name = 436 Patricia
| image = 
| caption = 
| discovery=yes | physical_characteristics = yes | bgcolour=#FFFFC0
| discovery_ref = 
| discoverer = [[马克斯·沃夫|马克斯·沃夫]]<br>[[弗利德里希·卡尔·阿诺德·施瓦斯曼|弗利德里希·卡尔·阿诺德·施瓦斯曼]]
| discovery_site = [[海德堡|海德堡]]（[[天文台编号列表|024]]）
| discovered =  1898年9月13日
| mp_name = 436
| alt_names =1898 DT
| named_after =
| mp_category=[[小行星带|外主带小行星]]
| orbit_ref = <ref>[http://ssd.jpl.nasa.gov/sbdb.cgi?sstr=436 436 Patricia (1898 DT)]</ref>
| epoch = 2011年8月27日
| semimajor= 3.203241729726301AU
| perihelion=2.999924407519411AU
| aphelion=3.406559051933192[[天文单位|AU]]
| eccentricity =0.06347236311268424		
| period =2094.030472023736[[日|地球日]]<br>5.73[[年|地球年]] 
| inclination=18.47640187914737[[角度|°]]
| asc_node=351.455576236787°	
| arg_peri=39.12791214791076°
| mean_anomaly=234.7084740235148°
| avg_speed=
 | dimensions=59.53千米
 | mass=
 | density=
 | surface_grav=
 | escape_velocity=
 | rotation=16.133小时
 | spectral_type=
 | magnitude=
 | abs_magnitude=9.80
 | albedo=0.0599
 | single_temperature=
}}
'''小行星436'''（'''436 Patricia'''），是由[[德国|德国]][[天文学家|天文学家]][[马克斯·沃夫|马克斯·沃夫]]和[[弗利德里希·卡尔·阿诺德·施瓦斯曼|弗利德里希·卡尔·阿诺德·施瓦斯曼]]于1898年9月13日在德国[[海德堡|海德堡]][[王座山天文台|王座山天文台]]发现的[[小行星带|外主带]][[小行星|小行星]]。

小行星436的命名依据不明。

== 参考资料 ==
{{Reflist}}

{{Minor Planet Number|(435)[[小行星435|小行星435]]|(437)[[小行星437|小行星437]]}}

[[Category:小行星带天体|Category:小行星带天体]]
[[Category:1898年发现的小行星|Category:1898年发现的小行星]]